STARLINK-36899          
1 68058U 26041U   26086.96095373  .00245864  00000+0  15575-2 0  9997
2 68058  53.1609 330.9141 0000911  81.7626 278.3498 15.75303713  4106
STARLINK-36917          
1 68059U 26041V   26086.19019216  .00141539  00000+0  90919-3 0  9995
2 68059  53.1584 334.6345 0000517  59.7021 300.4050 15.75312868  3989
STARLINK-36959          
1 68060U 26041W   26086.89297154  .00278152  00000+0  17572-2 0  9998
2 68060  53.1589 331.1974 0000904  12.9536 347.1507 15.75270539  4094
STARLINK-36915          
1 68061U 26041X   26086.93826023  .00335907  00000+0  21014-2 0  9995
2 68061  53.1599 330.7620 0001207  80.5458 279.5699 15.75327784  4107
STARLINK-36952          
1 68062U 26041Y   26086.89718003  .00295751  00000+0  18628-2 0  9998
2 68062  53.1600 331.2267 0000894   5.0331 355.0698 15.75288396  4099
STARLINK-37000          
1 68063U 26041Z   26086.94279949  .00231049  00000+0  14671-2 0  9990
2 68063  53.1602 330.7922 0000968  90.4751 269.6380 15.75294267  4104
STARLINK-36996          
1 68064U 26041AA  26086.83335648  .00100257  00000+0  64946-3 0  9995
2 68064  53.1594 331.0721 0001231  92.1232 135.7502 15.75274391  5299
STARLINK-36836          
1 68065U 26041AB  26086.83335648 -.00111979  00000+0 -73123-3 0  9998
2 68065  53.1592 331.0684 0001116  96.3811 133.3478 15.75387588  5296
STARLINK-36976          
1 68066U 26041AC  26086.88809526  .00349035  00000+0  21818-2 0  9992
2 68066  53.1581 331.1643 0001010  14.6076 345.4974 15.75308103  4090
STARLINK-36929          
1 68067U 26041AD  26086.95608638  .00319585  00000+0  20054-2 0  9990
2 68067  53.1588 330.8794 0000742  64.9505 295.1592 15.75303999  4104
STARLINK-36990          
1 68068U 26041AE  26086.84746759  .00261595  00000+0  12840-2 0  9997
2 68068  53.1589 330.8935 0000900  86.2966 273.8160 15.80959575  4092
STARLINK-36766          
1 68069U 26042A   26086.77700262  .00429925  00000+0  20635-2 0  9994
2 68069  53.1581 104.1319 0002296  80.6616 279.4666 15.80995813  4945
