CCSDS_OMM_VERS = 2.0
CREATION_DATE  = 
ORIGINATOR     = 

OBJECT_NAME    = STARLINK-36899
OBJECT_ID      = 2026-041U
CENTER_NAME    = EARTH
REF_FRAME      = TEME
TIME_SYSTEM    = UTC
MEAN_ELEMENT_THEORY = SGP/SGP4

EPOCH          = 2026-03-27T23:03:46.402272
MEAN_MOTION    = 15.75303713
ECCENTRICITY   = .00009118
INCLINATION    = 53.1609
RA_OF_ASC_NODE = 330.9141
ARG_OF_PERICENTER = 81.7626
MEAN_ANOMALY   = 278.3498

EPHEMERIS_TYPE = 0
CLASSIFICATION_TYPE = U
NORAD_CAT_ID   = 68058
ELEMENT_SET_NO = 999
REV_AT_EPOCH   = 410
BSTAR          = .15574668E-2
MEAN_MOTION_DOT = .245864E-2
MEAN_MOTION_DDOT = 0

CCSDS_OMM_VERS = 2.0
CREATION_DATE  = 
ORIGINATOR     = 

OBJECT_NAME    = STARLINK-36917
OBJECT_ID      = 2026-041V
CENTER_NAME    = EARTH
REF_FRAME      = TEME
TIME_SYSTEM    = UTC
MEAN_ELEMENT_THEORY = SGP/SGP4

EPOCH          = 2026-03-27T04:33:52.602624
MEAN_MOTION    = 15.75312868
ECCENTRICITY   = .00005171
INCLINATION    = 53.1584
RA_OF_ASC_NODE = 334.6345
ARG_OF_PERICENTER = 59.7021
MEAN_ANOMALY   = 300.4050

EPHEMERIS_TYPE = 0
CLASSIFICATION_TYPE = U
NORAD_CAT_ID   = 68059
ELEMENT_SET_NO = 999
REV_AT_EPOCH   = 398
BSTAR          = .90918515E-3
MEAN_MOTION_DOT = .141539E-2
MEAN_MOTION_DDOT = 0

CCSDS_OMM_VERS = 2.0
CREATION_DATE  = 
ORIGINATOR     = 

OBJECT_NAME    = STARLINK-36959
OBJECT_ID      = 2026-041W
CENTER_NAME    = EARTH
REF_FRAME      = TEME
TIME_SYSTEM    = UTC
MEAN_ELEMENT_THEORY = SGP/SGP4

EPOCH          = 2026-03-27T21:25:52.741056
MEAN_MOTION    = 15.75270539
ECCENTRICITY   = .00009043
INCLINATION    = 53.1589
RA_OF_ASC_NODE = 331.1974
ARG_OF_PERICENTER = 12.9536
MEAN_ANOMALY   = 347.1507

EPHEMERIS_TYPE = 0
CLASSIFICATION_TYPE = U
NORAD_CAT_ID   = 68060
ELEMENT_SET_NO = 999
REV_AT_EPOCH   = 409
BSTAR          = .17572088E-2
MEAN_MOTION_DOT = .278152E-2
MEAN_MOTION_DDOT = 0

CCSDS_OMM_VERS = 2.0
CREATION_DATE  = 
ORIGINATOR     = 

OBJECT_NAME    = STARLINK-36915
OBJECT_ID      = 2026-041X
CENTER_NAME    = EARTH
REF_FRAME      = TEME
TIME_SYSTEM    = UTC
MEAN_ELEMENT_THEORY = SGP/SGP4

EPOCH          = 2026-03-27T22:31:05.683872
MEAN_MOTION    = 15.75327784
ECCENTRICITY   = .00012079
INCLINATION    = 53.1599
RA_OF_ASC_NODE = 330.7620
ARG_OF_PERICENTER = 80.5458
MEAN_ANOMALY   = 279.5699

EPHEMERIS_TYPE = 0
CLASSIFICATION_TYPE = U
NORAD_CAT_ID   = 68061
ELEMENT_SET_NO = 999
REV_AT_EPOCH   = 410
BSTAR          = .21014162E-2
MEAN_MOTION_DOT = .335907E-2
MEAN_MOTION_DDOT = 0

CCSDS_OMM_VERS = 2.0
CREATION_DATE  = 
ORIGINATOR     = 

OBJECT_NAME    = STARLINK-36952
OBJECT_ID      = 2026-041Y
CENTER_NAME    = EARTH
REF_FRAME      = TEME
TIME_SYSTEM    = UTC
MEAN_ELEMENT_THEORY = SGP/SGP4

EPOCH          = 2026-03-27T21:31:56.354592
MEAN_MOTION    = 15.75288396
ECCENTRICITY   = .00008947
INCLINATION    = 53.1600
RA_OF_ASC_NODE = 331.2267
ARG_OF_PERICENTER = 5.0331
MEAN_ANOMALY   = 355.0698

EPHEMERIS_TYPE = 0
CLASSIFICATION_TYPE = U
NORAD_CAT_ID   = 68062
ELEMENT_SET_NO = 999
REV_AT_EPOCH   = 409
BSTAR          = .1862758E-2
MEAN_MOTION_DOT = .295751E-2
MEAN_MOTION_DDOT = 0

CCSDS_OMM_VERS = 2.0
CREATION_DATE  = 
ORIGINATOR     = 

OBJECT_NAME    = STARLINK-37000
OBJECT_ID      = 2026-041Z
CENTER_NAME    = EARTH
REF_FRAME      = TEME
TIME_SYSTEM    = UTC
MEAN_ELEMENT_THEORY = SGP/SGP4

EPOCH          = 2026-03-27T22:37:37.875936
MEAN_MOTION    = 15.75294267
ECCENTRICITY   = .00009683
INCLINATION    = 53.1602
RA_OF_ASC_NODE = 330.7922
ARG_OF_PERICENTER = 90.4751
MEAN_ANOMALY   = 269.6380

EPHEMERIS_TYPE = 0
CLASSIFICATION_TYPE = U
NORAD_CAT_ID   = 68063
ELEMENT_SET_NO = 999
REV_AT_EPOCH   = 410
BSTAR          = .1467055E-2
MEAN_MOTION_DOT = .231049E-2
MEAN_MOTION_DDOT = 0

CCSDS_OMM_VERS = 2.0
CREATION_DATE  = 
ORIGINATOR     = 

OBJECT_NAME    = STARLINK-36996
OBJECT_ID      = 2026-041AA
CENTER_NAME    = EARTH
REF_FRAME      = TEME
TIME_SYSTEM    = UTC
MEAN_ELEMENT_THEORY = SGP/SGP4

EPOCH          = 2026-03-27T20:00:01.999872
MEAN_MOTION    = 15.75274391
ECCENTRICITY   = .00012314
INCLINATION    = 53.1594
RA_OF_ASC_NODE = 331.0721
ARG_OF_PERICENTER = 92.1232
MEAN_ANOMALY   = 135.7502

EPHEMERIS_TYPE = 0
CLASSIFICATION_TYPE = U
NORAD_CAT_ID   = 68064
ELEMENT_SET_NO = 999
REV_AT_EPOCH   = 529
BSTAR          = .64946253E-3
MEAN_MOTION_DOT = .100257E-2
MEAN_MOTION_DDOT = 0

CCSDS_OMM_VERS = 2.0
CREATION_DATE  = 
ORIGINATOR     = 

OBJECT_NAME    = STARLINK-36836
OBJECT_ID      = 2026-041AB
CENTER_NAME    = EARTH
REF_FRAME      = TEME
TIME_SYSTEM    = UTC
MEAN_ELEMENT_THEORY = SGP/SGP4

EPOCH          = 2026-03-27T20:00:01.999872
MEAN_MOTION    = 15.75387588
ECCENTRICITY   = .00011164
INCLINATION    = 53.1592
RA_OF_ASC_NODE = 331.0684
ARG_OF_PERICENTER = 96.3811
MEAN_ANOMALY   = 133.3478

EPHEMERIS_TYPE = 0
CLASSIFICATION_TYPE = U
NORAD_CAT_ID   = 68065
ELEMENT_SET_NO = 999
REV_AT_EPOCH   = 529
BSTAR          = -.73123112E-3
MEAN_MOTION_DOT = -.111979E-2
MEAN_MOTION_DDOT = 0

CCSDS_OMM_VERS = 2.0
CREATION_DATE  = 
ORIGINATOR     = 

OBJECT_NAME    = STARLINK-36976
OBJECT_ID      = 2026-041AC
CENTER_NAME    = EARTH
REF_FRAME      = TEME
TIME_SYSTEM    = UTC
MEAN_ELEMENT_THEORY = SGP/SGP4

EPOCH          = 2026-03-27T21:18:51.430464
MEAN_MOTION    = 15.75308103
ECCENTRICITY   = .00010108
INCLINATION    = 53.1581
RA_OF_ASC_NODE = 331.1643
ARG_OF_PERICENTER = 14.6076
MEAN_ANOMALY   = 345.4974

EPHEMERIS_TYPE = 0
CLASSIFICATION_TYPE = U
NORAD_CAT_ID   = 68066
ELEMENT_SET_NO = 999
REV_AT_EPOCH   = 409
BSTAR          = .21817929E-2
MEAN_MOTION_DOT = .349035E-2
MEAN_MOTION_DDOT = 0

CCSDS_OMM_VERS = 2.0
CREATION_DATE  = 
ORIGINATOR     = 

OBJECT_NAME    = STARLINK-36929
OBJECT_ID      = 2026-041AD
CENTER_NAME    = EARTH
REF_FRAME      = TEME
TIME_SYSTEM    = UTC
MEAN_ELEMENT_THEORY = SGP/SGP4

EPOCH          = 2026-03-27T22:56:45.863232
MEAN_MOTION    = 15.75303999
ECCENTRICITY   = .00007428
INCLINATION    = 53.1588
RA_OF_ASC_NODE = 330.8794
ARG_OF_PERICENTER = 64.9505
MEAN_ANOMALY   = 295.1592

EPHEMERIS_TYPE = 0
CLASSIFICATION_TYPE = U
NORAD_CAT_ID   = 68067
ELEMENT_SET_NO = 999
REV_AT_EPOCH   = 410
BSTAR          = .20054297E-2
MEAN_MOTION_DOT = .319585E-2
MEAN_MOTION_DDOT = 0

CCSDS_OMM_VERS = 2.0
CREATION_DATE  = 
ORIGINATOR     = 

OBJECT_NAME    = STARLINK-36990
OBJECT_ID      = 2026-041AE
CENTER_NAME    = EARTH
REF_FRAME      = TEME
TIME_SYSTEM    = UTC
MEAN_ELEMENT_THEORY = SGP/SGP4

EPOCH          = 2026-03-27T20:20:21.199776
MEAN_MOTION    = 15.80959575
ECCENTRICITY   = .00009009
INCLINATION    = 53.1589
RA_OF_ASC_NODE = 330.8935
ARG_OF_PERICENTER = 86.2966
MEAN_ANOMALY   = 273.8160

EPHEMERIS_TYPE = 0
CLASSIFICATION_TYPE = U
NORAD_CAT_ID   = 68068
ELEMENT_SET_NO = 999
REV_AT_EPOCH   = 409
BSTAR          = .12840166E-2
MEAN_MOTION_DOT = .261595E-2
MEAN_MOTION_DDOT = 0

CCSDS_OMM_VERS = 2.0
CREATION_DATE  = 
ORIGINATOR     = 

OBJECT_NAME    = STARLINK-36766
OBJECT_ID      = 2026-042A
CENTER_NAME    = EARTH
REF_FRAME      = TEME
TIME_SYSTEM    = UTC
MEAN_ELEMENT_THEORY = SGP/SGP4

EPOCH          = 2026-03-27T18:38:53.026368
MEAN_MOTION    = 15.80995813
ECCENTRICITY   = .00022966
INCLINATION    = 53.1581
RA_OF_ASC_NODE = 104.1319
ARG_OF_PERICENTER = 80.6616
MEAN_ANOMALY   = 279.4666

EPHEMERIS_TYPE = 0
CLASSIFICATION_TYPE = U
NORAD_CAT_ID   = 68069
ELEMENT_SET_NO = 999
REV_AT_EPOCH   = 494
BSTAR          = .20635026E-2
MEAN_MOTION_DOT = .429925E-2
MEAN_MOTION_DDOT = 0

